1 08820U 76039A   03300.11921778 -.00000001  00000-0  10000-3 0  9700
2 08820 109.8222 226.7571 0044366 273.2745  86.2762  6.38664521385487
